{"post_office":[{"index":0,"loc":"place_id:ChIJb2HleAc1aDQRNgCqh8u6PU4","name":"新竹武昌街郵局","zip_code":"300191"},{"index":1,"loc":"place_id:ChIJM0vCWcI1aDQRmAytoype8Xg","name":"新竹東門郵局","zip_code":"300027"},{"index":2,"loc":"place_id:ChIJ_2k5Ng02aDQRDLW1fkfAMME","name":"清華大學郵局","zip_code":"300044"},{"index":3,"loc":"place_id:ChIJt32uJFg3aDQRBOWcnOLiNUI","name":"新竹龍山西路郵局","zip_code":"300195"},{"index":4,"loc":"place_id:ChIJgbXrGzs2aDQRWfxSWquzp1k","name":"新竹關東橋郵局","zip_code":"300049"},{"index":5,"loc":"place_id:ChIJRYrcUuA1aDQRqCab5B6KeWo","name":"新竹學府路郵局","zip_code":"300193"},{"index":6,"loc":"place_id:ChIJJdovcuw1aDQRxGEo4mZn8SY","name":"新竹西大路郵局","zip_code":"300081"},{"index":7,"loc":"place_id:ChIJnwD6JNo1aDQRjz8eAF0YJvM","name":"新竹民主路郵局","zip_code":"300191"},{"index":8,"loc":"place_id:ChIJNbwwjN41aDQRLTmROCKr0fU","name":"新竹東園郵局","zip_code":"300041"},{"index":9,"loc":"place_id:ChIJ7WmD2Bs2aDQRudZV14kqmRU","name":"新竹科學園郵局","zip_code":"300091"},{"index":10,"loc":"place_id:ChIJG3ePd_M1aDQR4PCgHd4jXyQ","name":"新竹南大路郵局","zip_code":"300035"},{"index":11,"loc":"place_id:ChIJuzo29s81aDQRkQ39qv7lkeE","name":"新竹民生路郵局","zip_code":"300007"},{"index":12,"loc":"place_id:ChIJKzwZkHM2aDQRbqUbqUeYMKI","name":"新竹建中郵局","zip_code":"300043"},{"index":13,"loc":"place_id:ChIJFxedyA82aDQRRZjYwuds9zk","name":"新竹陽明交大郵局","zip_code":"300093"}],"time_stamp":1723181476}